OBJECT_NAME,OBJECT_ID,EPOCH,MEAN_MOTION,ECCENTRICITY,INCLINATION,RA_OF_ASC_NODE,ARG_OF_PERICENTER,MEAN_ANOMALY,EPHEMERIS_TYPE,CLASSIFICATION_TYPE,NORAD_CAT_ID,ELEMENT_SET_NO,REV_AT_EPOCH,BSTAR,MEAN_MOTION_DOT,MEAN_MOTION_DDOT
TRITON-1,2013-066M,2026-07-08T13:37:22.007712,14.81779032,.00900598,97.8222,98.8863,163.6141,196.8017,0,U,39427,999,67725,.1389745E-3,.1119E-4,0
GOMX-1,2013-066Q,2026-07-08T11:57:51.079968,14.69531389,.01288731,97.6476,28.6162,9.7097,350.6555,0,U,39430,999,67304,.16191526E-3,.1039E-4,0
CUBEBUG-2 (LO-74),2013-066AA,2026-07-08T07:06:58.023360,14.93939383,.0056194,97.8910,138.3670,318.9114,40.7880,0,U,39440,999,68014,.16589136E-3,.1757E-4,0
NEE-02 KRYSAOR,2013-066AB,2026-07-08T06:37:08.809824,14.86719769,.00660405,97.8887,128.3413,2.0720,358.0757,0,U,39441,999,67933,.15492257E-3,.1374E-4,0
FUNCUBE-1 (AO-73),2013-066AE,2026-07-08T08:00:29.691072,15.09759525,.00377065,97.8284,161.2250,130.0497,230.4049,0,U,39444,999,68285,.2942867E-3,.476E-4,0
UWE-3,2013-066AG,2026-07-08T08:04:01.539552,14.97171964,.00475215,97.8696,145.5560,248.4998,111.1154,0,U,39446,999,68074,.1520418E-3,.1733E-4,0
SMDC ONE 2.4,2013-072H,2026-07-08T03:23:03.119712,15.18668747,.01475039,120.4916,73.0108,41.1273,320.0813,0,U,39469,999,12101,.35178081E-3,.9391E-4,0
COSMOS 2488 (RODNIK-S 7),2013-076A,2026-07-08T12:43:29.045856,12.42905860,.00207736,82.4849,155.3981,51.3489,308.9446,0,U,39483,999,56854,-.45443312E-3,-.53E-6,0
COSMOS 2489 (RODNIK-S 8),2013-076B,2026-07-08T14:04:20.302176,12.42879705,.00225814,82.4886,156.7489,51.0057,309.3029,0,U,39484,999,56860,-.32648157E-3,-.35E-6,0
COSMOS 2490 (RODNIK-S 9),2013-076C,2026-07-08T13:23:54.082176,12.42878983,.00228977,82.4833,154.8245,65.9034,294.4438,0,U,39485,999,56853,.23635209E-3,.43E-6,0
KAZEOSAT 1,2014-024A,2026-07-08T12:44:41.284896,14.42036712,.00012853,98.3194,261.4472,81.3703,278.7632,0,U,39731,999,64163,.12091994E-3,.354E-5,0
COSMOS 2496 (RODNIK-S 10),2014-028A,2026-07-08T12:22:41.085984,12.42879331,.00210983,82.4451,95.3730,34.8794,325.3663,0,U,39761,999,55016,-.50660117E-4,.3E-7,0
COSMOS 2497 (RODNIK-S 11),2014-028B,2026-07-08T13:42:36.739584,12.42895516,.00215735,82.4499,97.0363,29.9097,330.3210,0,U,39762,999,55017,.75476457E-3,.114E-5,0
COSMOS 2498 (RODNIK-S 12),2014-028C,2026-07-08T13:08:13.837632,12.42981206,.0022291,82.4459,95.5291,29.5101,330.7232,0,U,39763,999,55020,.64669253E-3,.1E-5,0
HODOYOSHI-4,2014-033B,2026-07-08T13:12:49.523616,14.88181268,.00221614,97.5465,13.3428,232.7311,127.1885,0,U,40011,999,65198,.13363371E-3,.1184E-4,0
UNISAT-6,2014-033C,2026-07-08T09:05:12.016320,14.88348610,.00447403,97.7901,341.7213,0.4555,359.6695,0,U,40012,999,64931,.17740109E-3,.1615E-4,0
DEIMOS-2,2014-033D,2026-07-08T14:51:21.790080,14.93789001,.00011044,97.5806,63.3524,83.4674,276.6672,0,U,40013,999,64092,.95388735E-4,.957E-5,0
BUGSAT-1 (TITA),2014-033E,2026-07-08T13:23:24.638784,15.15830350,.00291274,98.0423,283.3606,107.5760,252.8656,0,U,40014,999,65907,.10581265E-3,.1966E-4,0
SAUDISAT 4,2014-033G,2026-07-08T08:30:12.156768,14.79570691,.00448516,97.7609,334.7599,6.4036,353.7740,0,U,40016,999,64920,.61719185E-4,.417E-5,0
APRIZESAT 9,2014-033J,2026-07-08T07:35:29.048352,14.74246245,.00671804,97.9086,322.0014,131.6338,229.0652,0,U,40018,999,64667,.8999945E-4,.564E-5,0
BRITE-CA1 (TORONTO),2014-033L,2026-07-07T19:53:18.253536,14.72712458,.00779124,97.9764,317.3791,209.9563,149.7175,0,U,40020,999,64525,.12319721E-3,.77E-5,0
